[{"OBJECT_NAME":"STARLINK-30577","OBJECT_ID":"2023-158C","EPOCH":"2026-03-09T06:01:31.746432","MEAN_MOTION":15.2756656,"ECCENTRICITY":0.00013632,"INCLINATION":42.9982,"RA_OF_ASC_NODE":29.4411,"ARG_OF_PERICENTER":253.5054,"MEAN_ANOMALY":106.5648,"EPHEMERIS_TYPE":0,"CLASSIFICATION_TYPE":"U","NORAD_CAT_ID":58053,"ELEMENT_SET_NO":999,"REV_AT_EPOCH":13350,"BSTAR":-9.360613e-5,"MEAN_MOTION_DOT":-2.836e-5,"MEAN_MOTION_DDOT":0},{"OBJECT_NAME":"OTTER","OBJECT_ID":"2025-009Q","EPOCH":"2026-03-09T17:21:07.902432","MEAN_MOTION":15.27809545,"ECCENTRICITY":0.00035728,"INCLINATION":97.4065,"RA_OF_ASC_NODE":151.3812,"ARG_OF_PERICENTER":310.771,"MEAN_ANOMALY":49.3219,"EPHEMERIS_TYPE":0,"CLASSIFICATION_TYPE":"U","NORAD_CAT_ID":62623,"ELEMENT_SET_NO":999,"REV_AT_EPOCH":6372,"BSTAR":0.00045151206,"MEAN_MOTION_DOT":0.00012198,"MEAN_MOTION_DDOT":0}]
